{"type": "FeatureCollection", "features": [ {"type": "Feature", "properties": {"norad_id": 30368, "name": "FENGYUN 1C DEB", "group": "fengyun-1c-debris", "lat": -49.82224643709449, "lon": 94.95656805953313, "alt_km": 860.5389442285559, "timestamp": "2025-12-03T15:48:03.347265+00:00", "meta": {"OBJECT_NAME": "FENGYUN 1C DEB", "OBJECT_ID": "1999-025ACF", "EPOCH": "2025-12-03T05:42:08.756640", "MEAN_MOTION": 13.75351562, "ECCENTRICITY": 0.01861074, "INCLINATION": 99.1887, "RA_OF_ASC_NODE": 83.4997, "ARG_OF_PERICENTER": 333.2228, "MEAN_ANOMALY": 54.7185, "EPHEMERIS_TYPE": 0, "CLASSIFICATION_TYPE": "U", "NORAD_CAT_ID": 30368, "ELEMENT_SET_NO": 999, "REV_AT_EPOCH": 94531, "BSTAR": 0.00049996737, "MEAN_MOTION_DOT": 5.01e-06, "MEAN_MOTION_DDOT": 0}, "tle": {"line1": "1 30368U 99025ACF 25337.23760135  .00000501  00000+0  49997-3 0  9998", "line2": "2 30368  99.1887  83.4997 0186107 333.2228  54.7185 13.75351562945310"}}, "geometry": {"type": "Point", "coordinates": [94.95656805953313, -49.82224643709449]}}, {"type": "Feature", "properties": {"norad_id": 30369, "name": "FENGYUN 1C DEB", "group": "fengyun-1c-debris", "lat": 66.6042174349428, "lon": -45.51902605286653, "alt_km": 909.4702040120674, "timestamp": "2025-12-03T15:48:03.347274+00:00", "meta": {"OBJECT_NAME": "FENGYUN 1C DEB", "OBJECT_ID": "1999-025ACG", "EPOCH": "2025-12-02T19:40:00.079968", "MEAN_MOTION": 14.12044933, "ECCENTRICITY": 0.00987553, "INCLINATION": 98.721, "RA_OF_ASC_NODE": 334.4446, "ARG_OF_PERICENTER": 223.8524, "MEAN_ANOMALY": 262.7226, "EPHEMERIS_TYPE": 0, "CLASSIFICATION_TYPE": "U", "NORAD_CAT_ID": 30369, "ELEMENT_SET_NO": 999, "REV_AT_EPOCH": 97106, "BSTAR": 0.00027529109, "MEAN_MOTION_DOT": 4.85e-06, "MEAN_MOTION_DDOT": 0}, "tle": {"line1": "1 30369U 99025ACG 25336.81944537  .00000485  00000+0  27529-3 0  9990", "line2": "2 30369  98.7210 334.4446 0098755 223.8524 262.7226 14.12044933971069"}}, "geometry": {"type": "Point", "coordinates": [-45.51902605286653, 66.6042174349428]}}, {"type": "Feature", "properties": {"norad_id": 30370, "name": "FENGYUN 1C DEB", "group": "fengyun-1c-debris", "lat": 55.53836608521993, "lon": -133.150429315402, "alt_km": 877.4641056720266, "timestamp": "2025-12-03T15:48:03.347283+00:00", "meta": {"OBJECT_NAME": "FENGYUN 1C DEB", "OBJECT_ID": "1999-025ACH", "EPOCH": "2025-12-03T02:00:11.073600", "MEAN_MOTION": 14.19072072, "ECCENTRICITY": 0.00992527, "INCLINATION": 99.058, "RA_OF_ASC_NODE": 32.8213, "ARG_OF_PERICENTER": 345.1916, "MEAN_ANOMALY": 82.0127, "EPHEMERIS_TYPE": 0, "CLASSIFICATION_TYPE": "U", "NORAD_CAT_ID": 30370, "ELEMENT_SET_NO": 999, "REV_AT_EPOCH": 96957, "BSTAR": 0.0014713497, "MEAN_MOTION_DOT": 3.184e-05, "MEAN_MOTION_DDOT": 0}, "tle": {"line1": "1 30370U 99025ACH 25337.08346150  .00003184  00000+0  14713-2 0  9998", "line2": "2 30370  99.0580  32.8213 0099252 345.1916  82.0127 14.19072072969570"}}, "geometry": {"type": "Point", "coordinates": [-133.150429315402, 55.53836608521993]}}, {"type": "Feature", "properties": {"norad_id": 30371, "name": "FENGYUN 1C DEB", "group": "fengyun-1c-debris", "lat": 40.73649524068282, "lon": -151.73866208003724, "alt_km": 791.4942937666729, "timestamp": "2025-12-03T15:48:03.347292+00:00", "meta": {"OBJECT_NAME": "FENGYUN 1C DEB", "OBJECT_ID": "1999-025ACJ", "EPOCH": "2025-12-03T02:00:32.992416", "MEAN_MOTION": 14.30147637, "ECCENTRICITY": 0.00072714, "INCLINATION": 98.5771, "RA_OF_ASC_NODE": 20.2265, "ARG_OF_PERICENTER": 7.73, "MEAN_ANOMALY": 53.8742, "EPHEMERIS_TYPE": 0, "CLASSIFICATION_TYPE": "U", "NORAD_CAT_ID": 30371, "ELEMENT_SET_NO": 999, "REV_AT_EPOCH": 97765, "BSTAR": 0.0014154272, "MEAN_MOTION_DOT": 3.621e-05, "MEAN_MOTION_DDOT": 0}, "tle": {"line1": "1 30371U 99025ACJ 25337.08371519  .00003621  00000+0  14154-2 0  9991", "line2": "2 30371  98.5771  20.2265 0007271   7.7300  53.8742 14.30147637977653"}}, "geometry": {"type": "Point", "coordinates": [-151.73866208003724, 40.73649524068282]}}, {"type": "Feature", "properties": {"norad_id": 30374, "name": "FENGYUN 1C DEB", "group": "fengyun-1c-debris", "lat": -65.29536413080966, "lon": -139.09146621529115, "alt_km": 700.037472389311, "timestamp": "2025-12-03T15:48:03.347301+00:00", "meta": {"OBJECT_NAME": "FENGYUN 1C DEB", "OBJECT_ID": "1999-025ACM", "EPOCH": "2025-12-03T02:01:27.007968", "MEAN_MOTION": 14.61023987, "ECCENTRICITY": 0.00393048, "INCLINATION": 99.2734, "RA_OF_ASC_NODE": 199.4632, "ARG_OF_PERICENTER": 198.3111, "MEAN_ANOMALY": 316.7875, "EPHEMERIS_TYPE": 0, "CLASSIFICATION_TYPE": "U", "NORAD_CAT_ID": 30374, "ELEMENT_SET_NO": 999, "REV_AT_EPOCH": 98781, "BSTAR": 0.002185413, "MEAN_MOTION_DOT": 0.00010799, "MEAN_MOTION_DDOT": 0}, "tle": {"line1": "1 30374U 99025ACM 25337.08434037  .00010799  00000+0  21854-2 0  9998", "line2": "2 30374  99.2734 199.4632 0039304 198.3111 316.7875 14.61023987987811"}}, "geometry": {"type": "Point", "coordinates": [-139.09146621529115, -65.29536413080966]}}, {"type": "Feature", "properties": {"norad_id": 30377, "name": "FENGYUN 1C DEB", "group": "fengyun-1c-debris", "lat": -43.554033410820914, "lon": 5.976513884646886, "alt_km": 824.4557524016182, "timestamp": "2025-12-03T15:48:03.347310+00:00", "meta": {"OBJECT_NAME": "FENGYUN 1C DEB", "OBJECT_ID": "1999-025ACQ", "EPOCH": "2025-12-03T00:49:35.710176", "MEAN_MOTION": 13.99155773, "ECCENTRICITY": 0.01182411, "INCLINATION": 98.8949, "RA_OF_ASC_NODE": 356.808, "ARG_OF_PERICENTER": 293.7643, "MEAN_ANOMALY": 120.5713, "EPHEMERIS_TYPE": 0, "CLASSIFICATION_TYPE": "U", "NORAD_CAT_ID": 30377, "ELEMENT_SET_NO": 999, "REV_AT_EPOCH": 96071, "BSTAR": 0.00037594345, "MEAN_MOTION_DOT": 5.34e-06, "MEAN_MOTION_DDOT": 0}, "tle": {"line1": "1 30377U 99025ACQ 25337.03444109  .00000534  00000+0  37594-3 0  9992", "line2": "2 30377  98.8949 356.8080 0118241 293.7643 120.5713 13.99155773960712"}}, "geometry": {"type": "Point", "coordinates": [5.976513884646886, -43.554033410820914]}}, {"type": "Feature", "properties": {"norad_id": 30379, "name": "FENGYUN 1C DEB", "group": "fengyun-1c-debris", "lat": 35.58917327841918, "lon": 179.00427134837764, "alt_km": 888.2045224645835, "timestamp": "2025-12-03T15:48:03.347318+00:00", "meta": {"OBJECT_NAME": "FENGYUN 1C DEB", "OBJECT_ID": "1999-025ACS", "EPOCH": "2025-12-02T19:28:36.323328", "MEAN_MOTION": 14.0801761, "ECCENTRICITY": 0.00356679, "INCLINATION": 98.7587, "RA_OF_ASC_NODE": 351.8484, "ARG_OF_PERICENTER": 307.9449, "MEAN_ANOMALY": 225.8871, "EPHEMERIS_TYPE": 0, "CLASSIFICATION_TYPE": "U", "NORAD_CAT_ID": 30379, "ELEMENT_SET_NO": 999, "REV_AT_EPOCH": 96677, "BSTAR": 0.00039697085, "MEAN_MOTION_DOT": 6.36e-06, "MEAN_MOTION_DDOT": 0}, "tle": {"line1": "1 30379U 99025ACS 25336.81153152  .00000636  00000+0  39697-3 0  9993", "line2": "2 30379  98.7587 351.8484 0035667 307.9449 225.8871 14.08017610966770"}}, "geometry": {"type": "Point", "coordinates": [179.00427134837764, 35.58917327841918]}}, {"type": "Feature", "properties": {"norad_id": 30380, "name": "FENGYUN 1C DEB", "group": "fengyun-1c-debris", "lat": -48.59781606589536, "lon": -165.51362531792972, "alt_km": 609.0118270221037, "timestamp": "2025-12-03T15:48:03.347328+00:00", "meta": {"OBJECT_NAME": "FENGYUN 1C DEB", "OBJECT_ID": "1999-025ACT", "EPOCH": "2025-12-03T03:08:52.931616", "MEAN_MOTION": 14.50623917, "ECCENTRICITY": 0.01771875, "INCLINATION": 98.916, "RA_OF_ASC_NODE": 24.1842, "ARG_OF_PERICENTER": 246.4356, "MEAN_ANOMALY": 111.8139, "EPHEMERIS_TYPE": 0, "CLASSIFICATION_TYPE": "U", "NORAD_CAT_ID": 30380, "ELEMENT_SET_NO": 999, "REV_AT_EPOCH": 99426, "BSTAR": 0.00037584553, "MEAN_MOTION_DOT": 1.744e-05, "MEAN_MOTION_DDOT": 0}, "tle": {"line1": "1 30380U 99025ACT 25337.13116819  .00001744  00000+0  37585-3 0  9995", "line2": "2 30380  98.9160  24.1842 0177187 246.4356 111.8139 14.50623917994263"}}, "geometry": {"type": "Point", "coordinates": [-165.51362531792972, -48.59781606589536]}}, {"type": "Feature", "properties": {"norad_id": 30381, "name": "FENGYUN 1C DEB", "group": "fengyun-1c-debris", "lat": -12.724246554523353, "lon": 14.802213338302941, "alt_km": 870.1464300257112, "timestamp": "2025-12-03T15:48:03.347336+00:00", "meta": {"OBJECT_NAME": "FENGYUN 1C DEB", "OBJECT_ID": "1999-025ACU", "EPOCH": "2025-12-02T00:46:16.130496", "MEAN_MOTION": 14.12883963, "ECCENTRICITY": 0.00550495, "INCLINATION": 98.8157, "RA_OF_ASC_NODE": 11.1932, "ARG_OF_PERICENTER": 106.2398, "MEAN_ANOMALY": 254.484, "EPHEMERIS_TYPE": 0, "CLASSIFICATION_TYPE": "U", "NORAD_CAT_ID": 30381, "ELEMENT_SET_NO": 999, "REV_AT_EPOCH": 92015, "BSTAR": 0.0012049152, "MEAN_MOTION_DOT": 2.232e-05, "MEAN_MOTION_DDOT": 0}, "tle": {"line1": "1 30381U 99025ACU 25336.03213114  .00002232  00000+0  12049-2 0  9990", "line2": "2 30381  98.8157  11.1932 0055049 106.2398 254.4840 14.12883963920153"}}, "geometry": {"type": "Point", "coordinates": [14.802213338302941, -12.724246554523353]}}, {"type": "Feature", "properties": {"norad_id": 30382, "name": "FENGYUN 1C DEB", "group": "fengyun-1c-debris", "lat": -69.76670871951421, "lon": 40.248756570824504, "alt_km": 823.4120773920531, "timestamp": "2025-12-03T15:48:03.347345+00:00", "meta": {"OBJECT_NAME": "FENGYUN 1C DEB", "OBJECT_ID": "1999-025ACV", "EPOCH": "2025-12-03T02:57:37.473696", "MEAN_MOTION": 14.25221986, "ECCENTRICITY": 0.01553403, "INCLINATION": 98.5001, "RA_OF_ASC_NODE": 15.7931, "ARG_OF_PERICENTER": 25.2431, "MEAN_ANOMALY": 41.4724, "EPHEMERIS_TYPE": 0, "CLASSIFICATION_TYPE": "U", "NORAD_CAT_ID": 30382, "ELEMENT_SET_NO": 999, "REV_AT_EPOCH": 97398, "BSTAR": 0.0010622379, "MEAN_MOTION_DOT": 2.79e-05, "MEAN_MOTION_DDOT": 0}, "tle": {"line1": "1 30382U 99025ACV 25337.12335039  .00002790  00000+0  10622-2 0  9997", "line2": "2 30382  98.5001  15.7931 0155340  25.2431  41.4724 14.25221986973980"}}, "geometry": {"type": "Point", "coordinates": [40.248756570824504, -69.76670871951421]}}]}